{"fetched_at":"2026-07-20T18:29:00.674Z","source":"https://celestrak.org/NORAD/elements/gp.php?GROUP=spire&FORMAT=JSON","constellation":"spire","records":[{"OBJECT_NAME":"LEMUR-2-HUBBLE-4","OBJECT_ID":"2025-135AP","EPOCH":"2026-07-20T07:11:07.678752","CLASSIFICATION_TYPE":"U","MEAN_MOTION":14.9369324,"ECCENTRICITY":0.00030517,"INCLINATION":97.7722,"RA_OF_ASC_NODE":314.8238,"ARG_OF_PERICENTER":150.2214,"MEAN_ANOMALY":209.918,"EPHEMERIS_TYPE":0,"NORAD_CAT_ID":64565,"ELEMENT_SET_NO":999,"REV_AT_EPOCH":5881,"BSTAR":0.000049997704,"MEAN_MOTION_DOT":0.00000472,"MEAN_MOTION_DDOT":0},{"OBJECT_NAME":"LEMUR-2-SEJONG-2","OBJECT_ID":"2025-135BL","EPOCH":"2026-07-20T06:16:48.148032","CLASSIFICATION_TYPE":"U","MEAN_MOTION":14.9693644,"ECCENTRICITY":0.00042763,"INCLINATION":97.7709,"RA_OF_ASC_NODE":316.0652,"ARG_OF_PERICENTER":194.9703,"MEAN_ANOMALY":165.1393,"EPHEMERIS_TYPE":0,"NORAD_CAT_ID":64586,"ELEMENT_SET_NO":999,"REV_AT_EPOCH":5889,"BSTAR":0.00024732281,"MEAN_MOTION_DOT":0.00002783,"MEAN_MOTION_DDOT":0},{"OBJECT_NAME":"LEMUR-2-HUBBLE-5","OBJECT_ID":"2025-135BT","EPOCH":"2026-07-20T00:55:32.198304","CLASSIFICATION_TYPE":"U","MEAN_MOTION":14.94219461,"ECCENTRICITY":0.00046981,"INCLINATION":97.7742,"RA_OF_ASC_NODE":315.2401,"ARG_OF_PERICENTER":215.8788,"MEAN_ANOMALY":144.2118,"EPHEMERIS_TYPE":0,"NORAD_CAT_ID":64840,"ELEMENT_SET_NO":999,"REV_AT_EPOCH":5881,"BSTAR":0.000045476121,"MEAN_MOTION_DOT":0.0000043,"MEAN_MOTION_DDOT":0},{"OBJECT_NAME":"LEMUR-2-KARENDARRELL","OBJECT_ID":"2025-135BU","EPOCH":"2026-07-19T20:44:45.786048","CLASSIFICATION_TYPE":"U","MEAN_MOTION":15.00537259,"ECCENTRICITY":0.00128299,"INCLINATION":97.772,"RA_OF_ASC_NODE":317.0332,"ARG_OF_PERICENTER":90.7114,"MEAN_ANOMALY":269.5579,"EPHEMERIS_TYPE":0,"NORAD_CAT_ID":64841,"ELEMENT_SET_NO":999,"REV_AT_EPOCH":5891,"BSTAR":0.00032585197,"MEAN_MOTION_DOT":0.00004055,"MEAN_MOTION_DDOT":0},{"OBJECT_NAME":"LEMUR-2-LUCILLE-ROSE","OBJECT_ID":"2025-135BV","EPOCH":"2026-07-20T00:54:41.139360","CLASSIFICATION_TYPE":"U","MEAN_MOTION":15.00521746,"ECCENTRICITY":0.00153946,"INCLINATION":97.7699,"RA_OF_ASC_NODE":317.241,"ARG_OF_PERICENTER":174.6289,"MEAN_ANOMALY":185.5103,"EPHEMERIS_TYPE":0,"NORAD_CAT_ID":65403,"ELEMENT_SET_NO":999,"REV_AT_EPOCH":5356,"BSTAR":0.00028821965,"MEAN_MOTION_DOT":0.00003581,"MEAN_MOTION_DDOT":0},{"OBJECT_NAME":"LEMUR-2-AFFIE-WAUWIE","OBJECT_ID":"2025-248C","EPOCH":"2026-07-20T06:31:10.706016","CLASSIFICATION_TYPE":"U","MEAN_MOTION":15.28387854,"ECCENTRICITY":0.00092673,"INCLINATION":45.3906,"RA_OF_ASC_NODE":295.5651,"ARG_OF_PERICENTER":278.2221,"MEAN_ANOMALY":81.7618,"EPHEMERIS_TYPE":0,"NORAD_CAT_ID":66295,"ELEMENT_SET_NO":999,"REV_AT_EPOCH":3965,"BSTAR":0.00045736339,"MEAN_MOTION_DOT":0.00012608,"MEAN_MOTION_DDOT":0},{"OBJECT_NAME":"OTTER SDM","OBJECT_ID":"2025-276N","EPOCH":"2026-07-20T02:24:26.180064","CLASSIFICATION_TYPE":"U","MEAN_MOTION":15.20088886,"ECCENTRICITY":0.00045648,"INCLINATION":97.4195,"RA_OF_ASC_NODE":274.0355,"ARG_OF_PERICENTER":231.432,"MEAN_ANOMALY":128.6507,"EPHEMERIS_TYPE":0,"NORAD_CAT_ID":66678,"ELEMENT_SET_NO":999,"REV_AT_EPOCH":3541,"BSTAR":0.00015757409,"MEAN_MOTION_DOT":0.00003335,"MEAN_MOTION_DDOT":0},{"OBJECT_NAME":"LEMUR-2-STAS-GORBUK","OBJECT_ID":"2025-276W","EPOCH":"2026-07-20T02:57:09.397152","CLASSIFICATION_TYPE":"U","MEAN_MOTION":15.19686165,"ECCENTRICITY":0.00039436,"INCLINATION":97.4229,"RA_OF_ASC_NODE":274.1089,"ARG_OF_PERICENTER":225.2698,"MEAN_ANOMALY":134.8217,"EPHEMERIS_TYPE":0,"NORAD_CAT_ID":66686,"ELEMENT_SET_NO":999,"REV_AT_EPOCH":3541,"BSTAR":0.00013210926,"MEAN_MOTION_DOT":0.00002752,"MEAN_MOTION_DDOT":0},{"OBJECT_NAME":"LEMUR-2-TEODOR","OBJECT_ID":"2025-276DG","EPOCH":"2026-07-20T03:16:22.025856","CLASSIFICATION_TYPE":"U","MEAN_MOTION":15.21366988,"ECCENTRICITY":0.00021235,"INCLINATION":97.4133,"RA_OF_ASC_NODE":274.4002,"ARG_OF_PERICENTER":84.2829,"MEAN_ANOMALY":275.8649,"EPHEMERIS_TYPE":0,"NORAD_CAT_ID":66768,"ELEMENT_SET_NO":999,"REV_AT_EPOCH":3545,"BSTAR":0.0001413006,"MEAN_MOTION_DOT":0.00003098,"MEAN_MOTION_DDOT":0},{"OBJECT_NAME":"LEMUR-2-LAILA","OBJECT_ID":"2025-276DQ","EPOCH":"2026-07-20T02:31:49.423296","CLASSIFICATION_TYPE":"U","MEAN_MOTION":15.21593471,"ECCENTRICITY":0.00028412,"INCLINATION":97.4158,"RA_OF_ASC_NODE":274.5115,"ARG_OF_PERICENTER":87.2465,"MEAN_ANOMALY":272.9096,"EPHEMERIS_TYPE":0,"NORAD_CAT_ID":66776,"ELEMENT_SET_NO":999,"REV_AT_EPOCH":3545,"BSTAR":0.00013915133,"MEAN_MOTION_DOT":0.0000307,"MEAN_MOTION_DDOT":0},{"OBJECT_NAME":"LEMUR-2-CELIJO-SB-PK","OBJECT_ID":"2025-276DW","EPOCH":"2026-07-20T02:53:15.467424","CLASSIFICATION_TYPE":"U","MEAN_MOTION":15.00314671,"ECCENTRICITY":0.00067247,"INCLINATION":97.5182,"RA_OF_ASC_NODE":270.8102,"ARG_OF_PERICENTER":52.3506,"MEAN_ANOMALY":307.8327,"EPHEMERIS_TYPE":0,"NORAD_CAT_ID":66781,"ELEMENT_SET_NO":999,"REV_AT_EPOCH":2756,"BSTAR":0.00025373796,"MEAN_MOTION_DOT":0.00003125,"MEAN_MOTION_DDOT":0},{"OBJECT_NAME":"LEMUR-2-FINNIAN","OBJECT_ID":"2025-276DX","EPOCH":"2026-07-19T18:08:46.805856","CLASSIFICATION_TYPE":"U","MEAN_MOTION":15.00644953,"ECCENTRICITY":0.00070806,"INCLINATION":97.5356,"RA_OF_ASC_NODE":270.7347,"ARG_OF_PERICENTER":342.529,"MEAN_ANOMALY":17.569,"EPHEMERIS_TYPE":0,"NORAD_CAT_ID":66782,"ELEMENT_SET_NO":999,"REV_AT_EPOCH":2488,"BSTAR":0.00010688527,"MEAN_MOTION_DOT":0.00001294,"MEAN_MOTION_DDOT":0},{"OBJECT_NAME":"LEMUR-2-STARLIGHT","OBJECT_ID":"2025-276DY","EPOCH":"2026-07-20T03:22:57.723168","CLASSIFICATION_TYPE":"U","MEAN_MOTION":14.99392316,"ECCENTRICITY":0.00146138,"INCLINATION":97.5235,"RA_OF_ASC_NODE":270.6546,"ARG_OF_PERICENTER":32.3707,"MEAN_ANOMALY":327.841,"EPHEMERIS_TYPE":0,"NORAD_CAT_ID":66783,"ELEMENT_SET_NO":999,"REV_AT_EPOCH":3513,"BSTAR":0.00031682306,"MEAN_MOTION_DOT":0.00003829,"MEAN_MOTION_DDOT":0},{"OBJECT_NAME":"LEMUR-2-TARTIFLETTE","OBJECT_ID":"2025-276DZ","EPOCH":"2026-07-20T03:20:44.447712","CLASSIFICATION_TYPE":"U","MEAN_MOTION":14.99374313,"ECCENTRICITY":0.00138445,"INCLINATION":97.5233,"RA_OF_ASC_NODE":270.6609,"ARG_OF_PERICENTER":41.0576,"MEAN_ANOMALY":319.1687,"EPHEMERIS_TYPE":0,"NORAD_CAT_ID":66784,"ELEMENT_SET_NO":999,"REV_AT_EPOCH":3513,"BSTAR":0.00030427804,"MEAN_MOTION_DOT":0.00003673,"MEAN_MOTION_DDOT":0},{"OBJECT_NAME":"LEMUR-2-VUKASIN","OBJECT_ID":"2025-276EA","EPOCH":"2026-07-19T16:56:13.229952","CLASSIFICATION_TYPE":"U","MEAN_MOTION":15.00567775,"ECCENTRICITY":0.00023389,"INCLINATION":97.5206,"RA_OF_ASC_NODE":270.6077,"ARG_OF_PERICENTER":39.5355,"MEAN_ANOMALY":320.604,"EPHEMERIS_TYPE":0,"NORAD_CAT_ID":66785,"ELEMENT_SET_NO":999,"REV_AT_EPOCH":3502,"BSTAR":0.00017838822,"MEAN_MOTION_DOT":0.00002194,"MEAN_MOTION_DDOT":0},{"OBJECT_NAME":"LEMUR-2-HOTSPUR-TOM","OBJECT_ID":"2025-276EB","EPOCH":"2026-07-20T03:13:09.498144","CLASSIFICATION_TYPE":"U","MEAN_MOTION":14.99270649,"ECCENTRICITY":0.00135992,"INCLINATION":97.5212,"RA_OF_ASC_NODE":270.6281,"ARG_OF_PERICENTER":32.8551,"MEAN_ANOMALY":327.3515,"EPHEMERIS_TYPE":0,"NORAD_CAT_ID":66786,"ELEMENT_SET_NO":999,"REV_AT_EPOCH":3506,"BSTAR":0.00026146265,"MEAN_MOTION_DOT":0.00003139,"MEAN_MOTION_DDOT":0}]}
