LEMUR-2-HUBBLE-4        
1 64565U 25135AP  26201.29939443  .00000472  00000+0  49998-4 0  9991
2 64565  97.7722 314.8238 0003051 150.2214 209.9180 14.93693240 58817
LEMUR-2-SEJONG-2        
1 64586U 25135BL  26201.26166838  .00002783  00000+0  24732-3 0  9996
2 64586  97.7709 316.0652 0004276 194.9703 165.1393 14.96936440 58899
LEMUR-2-HUBBLE-5        
1 64840U 25135BT  26201.03856711  .00000430  00000+0  45476-4 0  9996
2 64840  97.7742 315.2401 0004698 215.8788 144.2118 14.94219461 58816
LEMUR-2-KARENDARRELL    
1 64841U 25135BU  26200.86441882  .00004055  00000+0  32585-3 0  9999
2 64841  97.7720 317.0332 0012829  90.7114 269.5579 15.00537259 58913
LEMUR-2-LUCILLE-ROSE    
1 65403U 25135BV  26201.03797615  .00003581  00000+0  28822-3 0  9994
2 65403  97.7699 317.2410 0015394 174.6289 185.5103 15.00521746 53567
LEMUR-2-AFFIE-WAUWIE    
1 66295U 25248C   26201.27165169  .00012608  00000+0  45736-3 0  9991
2 66295  45.3906 295.5651 0009267 278.2221  81.7618 15.28387854 39653
OTTER SDM               
1 66678U 25276N   26201.10030301  .00003335  00000+0  15757-3 0  9995
2 66678  97.4195 274.0355 0004564 231.4320 128.6507 15.20088886 35418
LEMUR-2-STAS-GORBUK     
1 66686U 25276W   26201.12302543  .00002752  00000+0  13211-3 0  9991
2 66686  97.4229 274.1089 0003943 225.2698 134.8217 15.19686165 35418
LEMUR-2-TEODOR          
1 66768U 25276DG  26201.13636604  .00003098  00000+0  14130-3 0  9996
2 66768  97.4133 274.4002 0002123  84.2829 275.8649 15.21366988 35459
LEMUR-2-LAILA           
1 66776U 25276DQ  26201.10543314  .00003070  00000+0  13915-3 0  9997
2 66776  97.4158 274.5115 0002841  87.2465 272.9096 15.21593471 35450
LEMUR-2-CELIJO-SB-PK    
1 66781U 25276DW  26201.12031791  .00003125  00000+0  25374-3 0  9999
2 66781  97.5182 270.8102 0006724  52.3506 307.8327 15.00314671 27560
LEMUR-2-FINNIAN         
1 66782U 25276DX  26200.75609729  .00001294  00000+0  10689-3 0  9998
2 66782  97.5356 270.7347 0007080 342.5290  17.5690 15.00644953 24883
LEMUR-2-STARLIGHT       
1 66783U 25276DY  26201.14094587  .00003829  00000+0  31682-3 0  9995
2 66783  97.5235 270.6546 0014613  32.3707 327.8410 14.99392316 35134
LEMUR-2-TARTIFLETTE     
1 66784U 25276DZ  26201.13940333  .00003673  00000+0  30428-3 0  9998
2 66784  97.5233 270.6609 0013844  41.0576 319.1687 14.99374313 35136
LEMUR-2-VUKASIN         
1 66785U 25276EA  26200.70570868  .00002194  00000+0  17839-3 0  9991
2 66785  97.5206 270.6077 0002338  39.5355 320.6040 15.00567775 35026
LEMUR-2-HOTSPUR-TOM     
1 66786U 25276EB  26201.13413771  .00003139  00000+0  26146-3 0  9990
2 66786  97.5212 270.6281 0013599  32.8551 327.3515 14.99270649 35069
